[{"OBJECT_NAME":"STARLINK-4609","OBJECT_ID":"2022-104AH","EPOCH":"2026-03-09T17:54:51.031008","MEAN_MOTION":15.08822218,"ECCENTRICITY":0.00011624,"INCLINATION":53.2168,"RA_OF_ASC_NODE":233.8605,"ARG_OF_PERICENTER":88.6909,"MEAN_ANOMALY":271.4217,"EPHEMERIS_TYPE":0,"CLASSIFICATION_TYPE":"U","NORAD_CAT_ID":53619,"ELEMENT_SET_NO":999,"REV_AT_EPOCH":19564,"BSTAR":-3.7526166e-5,"MEAN_MOTION_DOT":-8.85e-6,"MEAN_MOTION_DDOT":0},{"OBJECT_NAME":"FENGYUN 1C DEB","OBJECT_ID":"1999-025QK","EPOCH":"2026-03-09T09:38:35.752416","MEAN_MOTION":15.21777611,"ECCENTRICITY":0.00584989,"INCLINATION":98.8236,"RA_OF_ASC_NODE":15.4163,"ARG_OF_PERICENTER":235.7553,"MEAN_ANOMALY":123.8129,"EPHEMERIS_TYPE":0,"CLASSIFICATION_TYPE":"U","NORAD_CAT_ID":30082,"ELEMENT_SET_NO":999,"REV_AT_EPOCH":2608,"BSTAR":0.001566847,"MEAN_MOTION_DOT":0.00037313,"MEAN_MOTION_DDOT":0}]
